OBJECT_NAME,OBJECT_ID,EPOCH,MEAN_MOTION,ECCENTRICITY,INCLINATION,RA_OF_ASC_NODE,ARG_OF_PERICENTER,MEAN_ANOMALY,EPHEMERIS_TYPE,CLASSIFICATION_TYPE,NORAD_CAT_ID,ELEMENT_SET_NO,REV_AT_EPOCH,BSTAR,MEAN_MOTION_DOT,MEAN_MOTION_DDOT
GSAT0216 (GALILEO 20),2017-079B,2026-07-20T03:43:27.887232,1.70474538,.00049348,55.0668,220.5989,278.3287,81.6543,0,U,43056,999,5356,0,.57E-6,0
GSAT0217 (GALILEO 21),2017-079C,2026-07-20T23:06:06.568992,1.70474474,.00042597,55.0652,220.5745,292.9460,67.0499,0,U,43057,999,5356,0,.62E-6,0
GSAT0218 (GALILEO 22),2017-079D,2026-07-21T04:23:01.398912,1.70474478,.00054155,55.0651,220.5659,275.2147,84.7650,0,U,43058,999,5359,0,.64E-6,0
BEIDOU-3 M7 (C27),2018-003A,2026-07-21T04:17:51.196992,1.86228037,.00042553,54.2951,301.1285,100.7931,259.2886,0,U,43107,999,5798,0,-.101E-5,0
BEIDOU-3 M8 (C28),2018-003B,2026-07-21T15:50:46.260960,1.86230921,.00031321,54.2876,301.0931,256.3194,103.6796,0,U,43108,999,5800,0,-.101E-5,0
BEIDOU-3 M4 (C22),2018-018A,2026-07-21T00:42:34.775424,1.86231251,.00071447,56.6812,62.0321,31.4150,328.6897,0,U,43207,999,5737,0,-.8E-6,0
BEIDOU-3 M3 (C21),2018-018B,2026-07-21T15:11:33.569952,1.86231119,.00072012,56.6811,62.0163,348.0427,12.0023,0,U,43208,999,5738,0,-.79E-6,0
BEIDOU-3 M9 (C29),2018-029A,2026-07-20T18:39:06.446016,1.86228484,.00012157,54.1608,298.7724,191.8898,168.1446,0,U,43245,999,5652,0,-.98E-6,0
BEIDOU-3 M10 (C30),2018-029B,2026-07-21T18:50:46.328352,1.86229141,.00031557,54.1581,298.7638,36.7778,323.2807,0,U,43246,999,5652,0,-.97E-6,0
IRNSS-1I,2018-035A,2026-07-21T21:28:12.531936,1.00274701,.00184053,28.8336,73.6540,179.0574,64.0489,0,U,43286,999,3042,0,.62E-6,0
COSMOS 2527 (756),2018-053A,2026-07-20T09:39:19.852704,2.13101992,.00063441,65.5961,72.7996,227.3843,132.6293,0,U,43508,999,6298,0,-.49E-6,0
BEIDOU-2 IGSO-7 (C16),2018-057A,2026-07-16T19:52:42.225600,1.00242392,.01049148,55.1987,162.7987,237.9691,299.1450,0,U,43539,999,2942,0,-.84E-6,0
GSAT0221 (GALILEO 25),2018-060A,2026-07-17T13:36:55.120032,1.70476136,.00027013,57.1585,340.9609,283.6812,76.2771,0,U,43564,999,4968,0,-.104E-5,0
GSAT0222 (GALILEO 26),2018-060B,2026-07-21T21:26:04.045632,1.70476084,.00030361,57.1601,340.8479,234.2214,125.7449,0,U,43565,999,4980,0,-.107E-5,0
GSAT0219 (GALILEO 23),2018-060C,2026-07-22T02:44:05.076960,1.70476312,.00019021,57.1594,340.8434,291.7080,68.2662,0,U,43566,999,4978,0,-.107E-5,0
GSAT0220 (GALILEO 24),2018-060D,2026-07-19T23:43:37.727904,1.70476103,.00021108,57.1597,340.9001,284.4251,75.5444,0,U,43567,999,4973,0,-.107E-5,0
BEIDOU-3 M5 (C23),2018-062A,2026-07-21T11:19:57.484704,1.86228813,.00056113,54.0866,181.1382,294.6649,65.2579,0,U,43581,999,5427,0,.78E-6,0
BEIDOU-3 M6 (C24),2018-062B,2026-07-22T09:50:01.127328,1.86228094,.00053889,54.0863,181.0957,11.3215,348.6730,0,U,43582,999,5429,0,.76E-6,0
BEIDOU-3 M12 (C26),2018-067A,2026-07-22T08:21:23.451840,1.86227636,.00080426,54.1814,179.8480,30.1591,329.8681,0,U,43602,999,5377,0,.75E-6,0
BEIDOU-3 M11 (C25),2018-067B,2026-07-22T11:36:01.315584,1.86227144,.00047117,54.1790,179.8069,13.8636,346.1302,0,U,43603,999,5380,0,.74E-6,0
BEIDOU-3 M13 (C32),2018-072A,2026-07-20T19:51:02.488032,1.86231285,.00056715,56.6540,61.5496,334.9185,25.1158,0,U,43622,999,5328,0,-.8E-6,0
BEIDOU-3 M14 (C33),2018-072B,2026-07-21T05:30:28.658304,1.86231111,.00054316,56.6565,61.5310,13.4516,346.6246,0,U,43623,999,5328,0,-.8E-6,0
BEIDOU-3 M16 (C35),2018-078A,2026-07-20T20:20:15.467136,1.86232384,.00065166,54.0571,298.8050,39.3061,320.7783,0,U,43647,999,5278,0,-.98E-6,0
BEIDOU-3 M15 (C34),2018-078B,2026-07-20T23:26:23.627040,1.86232487,.00033878,54.0528,298.8006,57.1042,302.9655,0,U,43648,999,5280,0,-.98E-6,0
BEIDOU-3 G1 (C59),2018-085A,2026-07-22T13:58:08.340672,1.00272967,.00083134,2.9560,96.4144,357.3143,216.1265,0,U,43683,999,2841,0,-.107E-5,0
COSMOS 2529 (757),2018-086A,2026-07-20T11:57:49.657824,2.13101999,.00119769,64.2975,191.4696,256.3144,103.5547,0,U,43687,999,5999,0,.85E-6,0
BEIDOU-3 M17 (C36),2018-093A,2026-07-22T02:47:26.767392,1.86228496,.00099998,54.1702,181.1114,295.2679,0.0935,0,U,43706,999,5218,0,.78E-6,0
BEIDOU-3 M18 (C37),2018-093B,2026-07-21T00:03:23.021856,1.86226686,.00081178,54.1710,181.1414,324.4293,35.4967,0,U,43707,999,5216,0,.78E-6,0
GPS BIII-1  (PRN 04),2018-109A,2026-07-21T17:27:19.933056,2.00563321,.00388038,55.7026,90.8235,197.0340,26.2979,0,U,43873,999,5576,0,-.63E-6,0
BEIDOU-3 IGSO-1 (C38),2019-023A,2026-07-22T10:37:38.665632,1.00281841,.0026194,58.7457,37.2857,223.4912,318.1363,0,U,44204,999,756,0,-.208E-5,0
BEIDOU-2 G8 (C01),2019-027A,2026-07-22T15:25:46.350048,1.00270180,.00095803,1.7460,74.5118,284.0006,317.8242,0,U,44231,999,2643,0,-.245E-5,0
